CCSDS_OMM_VERS = 2.0
CREATION_DATE  = 
ORIGINATOR     = 

OBJECT_NAME    = STARLINK-36573
OBJECT_ID      = 2026-014H
CENTER_NAME    = EARTH
REF_FRAME      = TEME
TIME_SYSTEM    = UTC
MEAN_ELEMENT_THEORY = SGP/SGP4

EPOCH          = 2026-02-13T02:35:53.924928
MEAN_MOTION    = 15.80879685
ECCENTRICITY   = .0001467
INCLINATION    = 97.2851
RA_OF_ASC_NODE = 287.8250
ARG_OF_PERICENTER = 112.1919
MEAN_ANOMALY   = 247.9505

EPHEMERIS_TYPE = 0
CLASSIFICATION_TYPE = U
NORAD_CAT_ID   = 67539
ELEMENT_SET_NO = 999
REV_AT_EPOCH   = 470
BSTAR          = .1088E-2
MEAN_MOTION_DOT = .214086E-2
MEAN_MOTION_DDOT = 0

CCSDS_OMM_VERS = 2.0
CREATION_DATE  = 
ORIGINATOR     = 

OBJECT_NAME    = STARLINK-36585
OBJECT_ID      = 2026-014J
CENTER_NAME    = EARTH
REF_FRAME      = TEME
TIME_SYSTEM    = UTC
MEAN_ELEMENT_THEORY = SGP/SGP4

EPOCH          = 2026-02-13T03:06:19.823040
MEAN_MOTION    = 15.75215401
ECCENTRICITY   = .0001922
INCLINATION    = 97.2849
RA_OF_ASC_NODE = 287.7935
ARG_OF_PERICENTER = 77.3858
MEAN_ANOMALY   = 282.7622

EPHEMERIS_TYPE = 0
CLASSIFICATION_TYPE = U
NORAD_CAT_ID   = 67540
ELEMENT_SET_NO = 999
REV_AT_EPOCH   = 470
BSTAR          = .9191E-3
MEAN_MOTION_DOT = .139377E-2
MEAN_MOTION_DDOT = 0

CCSDS_OMM_VERS = 2.0
CREATION_DATE  = 
ORIGINATOR     = 

OBJECT_NAME    = STARLINK-36579
OBJECT_ID      = 2026-014K
CENTER_NAME    = EARTH
REF_FRAME      = TEME
TIME_SYSTEM    = UTC
MEAN_ELEMENT_THEORY = SGP/SGP4

EPOCH          = 2026-02-13T02:55:08.992704
MEAN_MOTION    = 15.75262967
ECCENTRICITY   = .0001361
INCLINATION    = 97.2842
RA_OF_ASC_NODE = 287.8078
ARG_OF_PERICENTER = 73.6218
MEAN_ANOMALY   = 286.5197

EPHEMERIS_TYPE = 0
CLASSIFICATION_TYPE = U
NORAD_CAT_ID   = 67541
ELEMENT_SET_NO = 999
REV_AT_EPOCH   = 470
BSTAR          = .17782E-2
MEAN_MOTION_DOT = .274669E-2
MEAN_MOTION_DDOT = 0

CCSDS_OMM_VERS = 2.0
CREATION_DATE  = 
ORIGINATOR     = 

OBJECT_NAME    = STARLINK-35934
OBJECT_ID      = 2026-014L
CENTER_NAME    = EARTH
REF_FRAME      = TEME
TIME_SYSTEM    = UTC
MEAN_ELEMENT_THEORY = SGP/SGP4

EPOCH          = 2026-02-13T02:30:39.817728
MEAN_MOTION    = 15.80892405
ECCENTRICITY   = .0001134
INCLINATION    = 97.2854
RA_OF_ASC_NODE = 287.8306
ARG_OF_PERICENTER = 56.5694
MEAN_ANOMALY   = 303.5683

EPHEMERIS_TYPE = 0
CLASSIFICATION_TYPE = U
NORAD_CAT_ID   = 67542
ELEMENT_SET_NO = 999
REV_AT_EPOCH   = 469
BSTAR          = .98826E-3
MEAN_MOTION_DOT = .194102E-2
MEAN_MOTION_DDOT = 0

CCSDS_OMM_VERS = 2.0
CREATION_DATE  = 
ORIGINATOR     = 

OBJECT_NAME    = STARLINK-36581
OBJECT_ID      = 2026-014M
CENTER_NAME    = EARTH
REF_FRAME      = TEME
TIME_SYSTEM    = UTC
MEAN_ELEMENT_THEORY = SGP/SGP4

EPOCH          = 2026-02-13T04:00:06.168384
MEAN_MOTION    = 15.80862146
ECCENTRICITY   = .0001119
INCLINATION    = 97.2853
RA_OF_ASC_NODE = 287.8983
ARG_OF_PERICENTER = 108.7629
MEAN_ANOMALY   = 251.3760

EPHEMERIS_TYPE = 0
CLASSIFICATION_TYPE = U
NORAD_CAT_ID   = 67543
ELEMENT_SET_NO = 999
REV_AT_EPOCH   = 471
BSTAR          = .87651E-3
MEAN_MOTION_DOT = .17145E-2
MEAN_MOTION_DDOT = 0

CCSDS_OMM_VERS = 2.0
CREATION_DATE  = 
ORIGINATOR     = 

OBJECT_NAME    = STARLINK-36565
OBJECT_ID      = 2026-014N
CENTER_NAME    = EARTH
REF_FRAME      = TEME
TIME_SYSTEM    = UTC
MEAN_ELEMENT_THEORY = SGP/SGP4

EPOCH          = 2026-02-13T03:59:02.419872
MEAN_MOTION    = 15.79189555
ECCENTRICITY   = .0002716
INCLINATION    = 97.2852
RA_OF_ASC_NODE = 287.8997
ARG_OF_PERICENTER = 41.2962
MEAN_ANOMALY   = 318.8510

EPHEMERIS_TYPE = 0
CLASSIFICATION_TYPE = U
NORAD_CAT_ID   = 67544
ELEMENT_SET_NO = 999
REV_AT_EPOCH   = 471
BSTAR          = -.47808E-2
MEAN_MOTION_DOT = -.778849E-2
MEAN_MOTION_DDOT = 0

CCSDS_OMM_VERS = 2.0
CREATION_DATE  = 
ORIGINATOR     = 

OBJECT_NAME    = STARLINK-36583
OBJECT_ID      = 2026-014P
CENTER_NAME    = EARTH
REF_FRAME      = TEME
TIME_SYSTEM    = UTC
MEAN_ELEMENT_THEORY = SGP/SGP4

EPOCH          = 2026-02-13T03:00:44.728416
MEAN_MOTION    = 15.75229411
ECCENTRICITY   = .0002194
INCLINATION    = 97.2845
RA_OF_ASC_NODE = 287.8002
ARG_OF_PERICENTER = 76.3322
MEAN_ANOMALY   = 283.8187

EPHEMERIS_TYPE = 0
CLASSIFICATION_TYPE = U
NORAD_CAT_ID   = 67545
ELEMENT_SET_NO = 999
REV_AT_EPOCH   = 470
BSTAR          = .14714E-2
MEAN_MOTION_DOT = .225627E-2
MEAN_MOTION_DDOT = 0

CCSDS_OMM_VERS = 2.0
CREATION_DATE  = 
ORIGINATOR     = 

OBJECT_NAME    = STARLINK-36580
OBJECT_ID      = 2026-014Q
CENTER_NAME    = EARTH
REF_FRAME      = TEME
TIME_SYSTEM    = UTC
MEAN_ELEMENT_THEORY = SGP/SGP4

EPOCH          = 2026-02-13T04:00:01.999584
MEAN_MOTION    = 15.75248225
ECCENTRICITY   = .0001467
INCLINATION    = 97.2857
RA_OF_ASC_NODE = 287.8876
ARG_OF_PERICENTER = 109.6042
MEAN_ANOMALY   = 225.8599

EPHEMERIS_TYPE = 0
CLASSIFICATION_TYPE = U
NORAD_CAT_ID   = 67546
ELEMENT_SET_NO = 999
REV_AT_EPOCH   = 474
BSTAR          = -.58297E-3
MEAN_MOTION_DOT = -.86429E-3
MEAN_MOTION_DDOT = 0

CCSDS_OMM_VERS = 2.0
CREATION_DATE  = 
ORIGINATOR     = 

OBJECT_NAME    = STARLINK-36584
OBJECT_ID      = 2026-014R
CENTER_NAME    = EARTH
REF_FRAME      = TEME
TIME_SYSTEM    = UTC
MEAN_ELEMENT_THEORY = SGP/SGP4

EPOCH          = 2026-02-13T03:53:40.669728
MEAN_MOTION    = 15.80879539
ECCENTRICITY   = .0001172
INCLINATION    = 97.2873
RA_OF_ASC_NODE = 287.8977
ARG_OF_PERICENTER = 95.8040
MEAN_ANOMALY   = 264.3362

EPHEMERIS_TYPE = 0
CLASSIFICATION_TYPE = U
NORAD_CAT_ID   = 67547
ELEMENT_SET_NO = 999
REV_AT_EPOCH   = 471
BSTAR          = .10803E-2
MEAN_MOTION_DOT = .212518E-2
MEAN_MOTION_DDOT = 0

CCSDS_OMM_VERS = 2.0
CREATION_DATE  = 
ORIGINATOR     = 

OBJECT_NAME    = STARLINK-36586
OBJECT_ID      = 2026-014S
CENTER_NAME    = EARTH
REF_FRAME      = TEME
TIME_SYSTEM    = UTC
MEAN_ELEMENT_THEORY = SGP/SGP4

EPOCH          = 2026-02-13T03:51:42.128064
MEAN_MOTION    = 15.80919161
ECCENTRICITY   = .0001443
INCLINATION    = 97.2853
RA_OF_ASC_NODE = 287.9069
ARG_OF_PERICENTER = 114.6446
MEAN_ANOMALY   = 245.4972

EPHEMERIS_TYPE = 0
CLASSIFICATION_TYPE = U
NORAD_CAT_ID   = 67548
ELEMENT_SET_NO = 999
REV_AT_EPOCH   = 471
BSTAR          = .12381E-2
MEAN_MOTION_DOT = .244937E-2
MEAN_MOTION_DDOT = 0

CCSDS_OMM_VERS = 2.0
CREATION_DATE  = 
ORIGINATOR     = 

OBJECT_NAME    = STARLINK-36564
OBJECT_ID      = 2026-014T
CENTER_NAME    = EARTH
REF_FRAME      = TEME
TIME_SYSTEM    = UTC
MEAN_ELEMENT_THEORY = SGP/SGP4

EPOCH          = 2026-02-13T04:17:59.358336
MEAN_MOTION    = 15.75227087
ECCENTRICITY   = .0001593
INCLINATION    = 97.2850
RA_OF_ASC_NODE = 287.8813
ARG_OF_PERICENTER = 96.8655
MEAN_ANOMALY   = 263.2791

EPHEMERIS_TYPE = 0
CLASSIFICATION_TYPE = U
NORAD_CAT_ID   = 67549
ELEMENT_SET_NO = 999
REV_AT_EPOCH   = 465
BSTAR          = .10016E-2
MEAN_MOTION_DOT = .152202E-2
MEAN_MOTION_DDOT = 0

CCSDS_OMM_VERS = 2.0
CREATION_DATE  = 
ORIGINATOR     = 

OBJECT_NAME    = STARLINK-36563
OBJECT_ID      = 2026-014U
CENTER_NAME    = EARTH
REF_FRAME      = TEME
TIME_SYSTEM    = UTC
MEAN_ELEMENT_THEORY = SGP/SGP4

EPOCH          = 2026-02-13T04:11:53.423232
MEAN_MOTION    = 15.75233383
ECCENTRICITY   = .0001422
INCLINATION    = 97.2853
RA_OF_ASC_NODE = 287.8862
ARG_OF_PERICENTER = 76.7418
MEAN_ANOMALY   = 283.4005

EPHEMERIS_TYPE = 0
CLASSIFICATION_TYPE = U
NORAD_CAT_ID   = 67550
ELEMENT_SET_NO = 999
REV_AT_EPOCH   = 471
BSTAR          = .1102E-2
MEAN_MOTION_DOT = .167817E-2
MEAN_MOTION_DDOT = 0

