STARLINK-36573          
1 67539U 26014H   26044.10826302  .00214086  00000+0  10880-2 0  9990
2 67539  97.2851 287.8250 0001467 112.1919 247.9505 15.80879685  4708
STARLINK-36585          
1 67540U 26014J   26044.12939610  .00139377  00000+0  91910-3 0  9994
2 67540  97.2849 287.7935 0001922  77.3858 282.7622 15.75215401  4707
STARLINK-36579          
1 67541U 26014K   26044.12163186  .00274669  00000+0  17782-2 0  9990
2 67541  97.2842 287.8078 0001361  73.6218 286.5197 15.75262967  4704
STARLINK-35934          
1 67542U 26014L   26044.10462752  .00194102  00000+0  98826-3 0  9992
2 67542  97.2854 287.8306 0001134  56.5694 303.5683 15.80892405  4698
STARLINK-36581          
1 67543U 26014M   26044.16673806  .00171450  00000+0  87651-3 0  9998
2 67543  97.2853 287.8983 0001119 108.7629 251.3760 15.80862146  4718
STARLINK-36565          
1 67544U 26014N   26044.16600023 -.00778849  00000+0 -47808-2 0  9996
2 67544  97.2852 287.8997 0002716  41.2962 318.8510 15.79189555  4714
STARLINK-36583          
1 67545U 26014P   26044.12551769  .00225627  00000+0  14714-2 0  9994
2 67545  97.2845 287.8002 0002194  76.3322 283.8187 15.75229411  4705
STARLINK-36580          
1 67546U 26014Q   26044.16668981 -.00086429  00000+0 -58297-3 0  9996
2 67546  97.2857 287.8876 0001467 109.6042 225.8599 15.75248225  4740
STARLINK-36584          
1 67547U 26014R   26044.16227627  .00212518  00000+0  10803-2 0  9993
2 67547  97.2873 287.8977 0001172  95.8040 264.3362 15.80879539  4715
STARLINK-36586          
1 67548U 26014S   26044.16090426  .00244937  00000+0  12381-2 0  9992
2 67548  97.2853 287.9069 0001443 114.6446 245.4972 15.80919161  4711
STARLINK-36564          
1 67549U 26014T   26044.17915924  .00152202  00000+0  10016-2 0  9999
2 67549  97.2850 287.8813 0001593  96.8655 263.2791 15.75227087  4657
STARLINK-36563          
1 67550U 26014U   26044.17492388  .00167817  00000+0  11020-2 0  9999
2 67550  97.2853 287.8862 0001422  76.7418 283.4005 15.75233383  4716
